ONEWEB-0342             
1 49208U 21083Y   25215.32386860  .00000069  00000+0  13861-3 0  9994
2 49208  87.9284 337.7688 0001918  92.9782 267.1571 13.20772554194820
ONEWEB-0343             
1 49209U 21083Z   25215.51755943  .00000124  00000+0  28240-3 0  9997
2 49209  87.9132  38.5482 0001403  71.9008 288.2277 13.18688199188174
ONEWEB-0344             
1 49210U 21083AA  25215.45928272  .00000427  00000+0  11340-2 0  9997
2 49210  87.8970  23.3973 0001346  92.9515 267.1768 13.13470306189181
ONEWEB-0345             
1 49211U 21083AB  25215.45082317  .00000350  00000+0  92289-3 0  9996
2 49211  87.8967  23.3506 0001309  93.1187 267.0091 13.13469499189197
ONEWEB-0346             
1 49212U 21083AC  25215.52663281  .00000059  00000+0  11763-3 0  9994
2 49212  87.9128  38.5681 0002006 109.0859 251.0490 13.18686558188117
ONEWEB-0348             
1 49213U 21083AD  25215.39014696 -.00000409  00000+0 -10369-2 0  9991
2 49213  87.9290 337.7665 0001661 111.8539 248.2771 13.20775286194865
ONEWEB-0350             
1 49214U 21083AE  25215.46012606  .00000376  00000+0  99571-3 0  9993
2 49214  87.8970  23.3401 0001469  95.0939 265.0358 13.13469086189221
ONEWEB-0351             
1 49215U 21083AF  25215.38366244 -.00000249  00000+0 -64334-3 0  9995
2 49215  87.9306 337.7524 0002002  67.9073 292.2273 13.20770434194825
ONEWEB-0352             
1 49216U 21083AG  25215.51683635  .00000181  00000+0  45995-3 0  9992
2 49216  87.8964  23.3698 0002036  83.3679 276.7682 13.13471395189322
ONEWEB-0354             
1 49217U 21083AH  25215.40909140 -.00000041  00000+0 -13266-3 0  9996
2 49217  87.9296 337.7448 0001590 102.5913 257.5398 13.20770924194860
ONEWEB-0355             
1 49218U 21083AJ  25215.46957072  .00000244  00000+0  63218-3 0  9995
2 49218  87.8972  23.3784 0001629  88.0036 272.1279 13.13470743189198
ONEWEB-0357             
1 49219U 21083AK  25215.40593756 -.00000081  00000+0 -23103-3 0  9995
2 49219  87.9285 337.7489 0001812  94.5377 265.5963 13.20771165194861
ONEWEB-0332             
1 49279U 21090A   25215.42687524 -.00000061  00000+0 -19999-3 0  9994
2 49279  87.9070 352.9512 0002012  91.8559 268.2801 13.14504035185831
ONEWEB-0347             
1 49280U 21090B   25215.39646390 -.00000033  00000+0 -11417-3 0  9994
2 49280  87.9296 337.7620 0002205  96.0746 264.0639 13.20770935189099
ONEWEB-0349             
1 49281U 21090C   25215.35228315  .00000043  00000+0  73555-4 0  9995
2 49281  87.9285 337.7744 0001855  97.1923 262.9421 13.20770777187878
ONEWEB-0353             
1 49282U 21090D   25215.41894235 -.00000091  00000+0 -28046-3 0  9992
2 49282  87.9070 352.9399 0002066  93.6851 266.4515 13.14504224185834
ONEWEB-0356             
1 49283U 21090E   25215.35069542  .00000038  00000+0  60328-4 0  9990
2 49283  87.9287 337.7658 0002458 115.9568 244.1818 13.20771727187878
