[{"OBJECT_NAME":"ONEWEB-0342","OBJECT_ID":"2021-083Y","EPOCH":"2025-08-03T07:46:22.247040","MEAN_MOTION":13.20772554,"ECCENTRICITY":0.0001918,"INCLINATION":87.9284,"RA_OF_ASC_NODE":337.7688,"ARG_OF_PERICENTER":92.9782,"MEAN_ANOMALY":267.1571,"EPHEMERIS_TYPE":0,"CLASSIFICATION_TYPE":"U","NORAD_CAT_ID":49208,"ELEMENT_SET_NO":999,"REV_AT_EPOCH":19482,"BSTAR":0.00013861,"MEAN_MOTION_DOT":6.9e-7,"MEAN_MOTION_DDOT":0},{"OBJECT_NAME":"ONEWEB-0343","OBJECT_ID":"2021-083Z","EPOCH":"2025-08-03T12:25:17.134752","MEAN_MOTION":13.18688199,"ECCENTRICITY":0.0001403,"INCLINATION":87.9132,"RA_OF_ASC_NODE":38.5482,"ARG_OF_PERICENTER":71.9008,"MEAN_ANOMALY":288.2277,"EPHEMERIS_TYPE":0,"CLASSIFICATION_TYPE":"U","NORAD_CAT_ID":49209,"ELEMENT_SET_NO":999,"REV_AT_EPOCH":18817,"BSTAR":0.0002824,"MEAN_MOTION_DOT":1.24e-6,"MEAN_MOTION_DDOT":0},{"OBJECT_NAME":"ONEWEB-0344","OBJECT_ID":"2021-083AA","EPOCH":"2025-08-03T11:01:22.027008","MEAN_MOTION":13.13470306,"ECCENTRICITY":0.0001346,"INCLINATION":87.897,"RA_OF_ASC_NODE":23.3973,"ARG_OF_PERICENTER":92.9515,"MEAN_ANOMALY":267.1768,"EPHEMERIS_TYPE":0,"CLASSIFICATION_TYPE":"U","NORAD_CAT_ID":49210,"ELEMENT_SET_NO":999,"REV_AT_EPOCH":18918,"BSTAR":0.001134,"MEAN_MOTION_DOT":4.27e-6,"MEAN_MOTION_DDOT":0},{"OBJECT_NAME":"ONEWEB-0345","OBJECT_ID":"2021-083AB","EPOCH":"2025-08-03T10:49:11.121888","MEAN_MOTION":13.13469499,"ECCENTRICITY":0.0001309,"INCLINATION":87.8967,"RA_OF_ASC_NODE":23.3506,"ARG_OF_PERICENTER":93.1187,"MEAN_ANOMALY":267.0091,"EPHEMERIS_TYPE":0,"CLASSIFICATION_TYPE":"U","NORAD_CAT_ID":49211,"ELEMENT_SET_NO":999,"REV_AT_EPOCH":18919,"BSTAR":0.00092289,"MEAN_MOTION_DOT":3.5e-6,"MEAN_MOTION_DDOT":0},{"OBJECT_NAME":"ONEWEB-0346","OBJECT_ID":"2021-083AC","EPOCH":"2025-08-03T12:38:21.074784","MEAN_MOTION":13.18686558,"ECCENTRICITY":0.0002006,"INCLINATION":87.9128,"RA_OF_ASC_NODE":38.5681,"ARG_OF_PERICENTER":109.0859,"MEAN_ANOMALY":251.049,"EPHEMERIS_TYPE":0,"CLASSIFICATION_TYPE":"U","NORAD_CAT_ID":49212,"ELEMENT_SET_NO":999,"REV_AT_EPOCH":18811,"BSTAR":0.00011763,"MEAN_MOTION_DOT":5.9e-7,"MEAN_MOTION_DDOT":0},{"OBJECT_NAME":"ONEWEB-0348","OBJECT_ID":"2021-083AD","EPOCH":"2025-08-03T09:21:48.697344","MEAN_MOTION":13.20775286,"ECCENTRICITY":0.0001661,"INCLINATION":87.929,"RA_OF_ASC_NODE":337.7665,"ARG_OF_PERICENTER":111.8539,"MEAN_ANOMALY":248.2771,"EPHEMERIS_TYPE":0,"CLASSIFICATION_TYPE":"U","NORAD_CAT_ID":49213,"ELEMENT_SET_NO":999,"REV_AT_EPOCH":19486,"BSTAR":-0.0010369,"MEAN_MOTION_DOT":-4.09e-6,"MEAN_MOTION_DDOT":0},{"OBJECT_NAME":"ONEWEB-0350","OBJECT_ID":"2021-083AE","EPOCH":"2025-08-03T11:02:34.891584","MEAN_MOTION":13.13469086,"ECCENTRICITY":0.0001469,"INCLINATION":87.897,"RA_OF_ASC_NODE":23.3401,"ARG_OF_PERICENTER":95.0939,"MEAN_ANOMALY":265.0358,"EPHEMERIS_TYPE":0,"CLASSIFICATION_TYPE":"U","NORAD_CAT_ID":49214,"ELEMENT_SET_NO":999,"REV_AT_EPOCH":18922,"BSTAR":0.00099571,"MEAN_MOTION_DOT":3.76e-6,"MEAN_MOTION_DDOT":0},{"OBJECT_NAME":"ONEWEB-0351","OBJECT_ID":"2021-083AF","EPOCH":"2025-08-03T09:12:28.434816","MEAN_MOTION":13.20770434,"ECCENTRICITY":0.0002002,"INCLINATION":87.9306,"RA_OF_ASC_NODE":337.7524,"ARG_OF_PERICENTER":67.9073,"MEAN_ANOMALY":292.2273,"EPHEMERIS_TYPE":0,"CLASSIFICATION_TYPE":"U","NORAD_CAT_ID":49215,"ELEMENT_SET_NO":999,"REV_AT_EPOCH":19482,"BSTAR":-0.00064334,"MEAN_MOTION_DOT":-2.49e-6,"MEAN_MOTION_DDOT":0},{"OBJECT_NAME":"ONEWEB-0352","OBJECT_ID":"2021-083AG","EPOCH":"2025-08-03T12:24:14.660640","MEAN_MOTION":13.13471395,"ECCENTRICITY":0.0002036,"INCLINATION":87.8964,"RA_OF_ASC_NODE":23.3698,"ARG_OF_PERICENTER":83.3679,"MEAN_ANOMALY":276.7682,"EPHEMERIS_TYPE":0,"CLASSIFICATION_TYPE":"U","NORAD_CAT_ID":49216,"ELEMENT_SET_NO":999,"REV_AT_EPOCH":18932,"BSTAR":0.00045995,"MEAN_MOTION_DOT":1.81e-6,"MEAN_MOTION_DDOT":0},{"OBJECT_NAME":"ONEWEB-0354","OBJECT_ID":"2021-083AH","EPOCH":"2025-08-03T09:49:05.496960","MEAN_MOTION":13.20770924,"ECCENTRICITY":0.000159,"INCLINATION":87.9296,"RA_OF_ASC_NODE":337.7448,"ARG_OF_PERICENTER":102.5913,"MEAN_ANOMALY":257.5398,"EPHEMERIS_TYPE":0,"CLASSIFICATION_TYPE":"U","NORAD_CAT_ID":49217,"ELEMENT_SET_NO":999,"REV_AT_EPOCH":19486,"BSTAR":-0.00013266,"MEAN_MOTION_DOT":-4.1e-7,"MEAN_MOTION_DDOT":0},{"OBJECT_NAME":"ONEWEB-0355","OBJECT_ID":"2021-083AJ","EPOCH":"2025-08-03T11:16:10.910208","MEAN_MOTION":13.13470743,"ECCENTRICITY":0.0001629,"INCLINATION":87.8972,"RA_OF_ASC_NODE":23.3784,"ARG_OF_PERICENTER":88.0036,"MEAN_ANOMALY":272.1279,"EPHEMERIS_TYPE":0,"CLASSIFICATION_TYPE":"U","NORAD_CAT_ID":49218,"ELEMENT_SET_NO":999,"REV_AT_EPOCH":18919,"BSTAR":0.00063218,"MEAN_MOTION_DOT":2.44e-6,"MEAN_MOTION_DDOT":0},{"OBJECT_NAME":"ONEWEB-0357","OBJECT_ID":"2021-083AK","EPOCH":"2025-08-03T09:44:33.005184","MEAN_MOTION":13.20771165,"ECCENTRICITY":0.0001812,"INCLINATION":87.9285,"RA_OF_ASC_NODE":337.7489,"ARG_OF_PERICENTER":94.5377,"MEAN_ANOMALY":265.5963,"EPHEMERIS_TYPE":0,"CLASSIFICATION_TYPE":"U","NORAD_CAT_ID":49219,"ELEMENT_SET_NO":999,"REV_AT_EPOCH":19486,"BSTAR":-0.00023103,"MEAN_MOTION_DOT":-8.1e-7,"MEAN_MOTION_DDOT":0},{"OBJECT_NAME":"ONEWEB-0332","OBJECT_ID":"2021-090A","EPOCH":"2025-08-03T10:14:42.020736","MEAN_MOTION":13.14504035,"ECCENTRICITY":0.0002012,"INCLINATION":87.907,"RA_OF_ASC_NODE":352.9512,"ARG_OF_PERICENTER":91.8559,"MEAN_ANOMALY":268.2801,"EPHEMERIS_TYPE":0,"CLASSIFICATION_TYPE":"U","NORAD_CAT_ID":49279,"ELEMENT_SET_NO":999,"REV_AT_EPOCH":18583,"BSTAR":-0.00019999,"MEAN_MOTION_DOT":-6.1e-7,"MEAN_MOTION_DDOT":0},{"OBJECT_NAME":"ONEWEB-0347","OBJECT_ID":"2021-090B","EPOCH":"2025-08-03T09:30:54.480960","MEAN_MOTION":13.20770935,"ECCENTRICITY":0.0002205,"INCLINATION":87.9296,"RA_OF_ASC_NODE":337.762,"ARG_OF_PERICENTER":96.0746,"MEAN_ANOMALY":264.0639,"EPHEMERIS_TYPE":0,"CLASSIFICATION_TYPE":"U","NORAD_CAT_ID":49280,"ELEMENT_SET_NO":999,"REV_AT_EPOCH":18909,"BSTAR":-0.00011417,"MEAN_MOTION_DOT":-3.3e-7,"MEAN_MOTION_DDOT":0},{"OBJECT_NAME":"ONEWEB-0349","OBJECT_ID":"2021-090C","EPOCH":"2025-08-03T08:27:17.264160","MEAN_MOTION":13.20770777,"ECCENTRICITY":0.0001855,"INCLINATION":87.9285,"RA_OF_ASC_NODE":337.7744,"ARG_OF_PERICENTER":97.1923,"MEAN_ANOMALY":262.9421,"EPHEMERIS_TYPE":0,"CLASSIFICATION_TYPE":"U","NORAD_CAT_ID":49281,"ELEMENT_SET_NO":999,"REV_AT_EPOCH":18787,"BSTAR":7.3555e-5,"MEAN_MOTION_DOT":4.3e-7,"MEAN_MOTION_DDOT":0},{"OBJECT_NAME":"ONEWEB-0353","OBJECT_ID":"2021-090D","EPOCH":"2025-08-03T10:03:16.619040","MEAN_MOTION":13.14504224,"ECCENTRICITY":0.0002066,"INCLINATION":87.907,"RA_OF_ASC_NODE":352.9399,"ARG_OF_PERICENTER":93.6851,"MEAN_ANOMALY":266.4515,"EPHEMERIS_TYPE":0,"CLASSIFICATION_TYPE":"U","NORAD_CAT_ID":49282,"ELEMENT_SET_NO":999,"REV_AT_EPOCH":18583,"BSTAR":-0.00028046,"MEAN_MOTION_DOT":-9.1e-7,"MEAN_MOTION_DDOT":0},{"OBJECT_NAME":"ONEWEB-0356","OBJECT_ID":"2021-090E","EPOCH":"2025-08-03T08:25:00.084288","MEAN_MOTION":13.20771727,"ECCENTRICITY":0.0002458,"INCLINATION":87.9287,"RA_OF_ASC_NODE":337.7658,"ARG_OF_PERICENTER":115.9568,"MEAN_ANOMALY":244.1818,"EPHEMERIS_TYPE":0,"CLASSIFICATION_TYPE":"U","NORAD_CAT_ID":49283,"ELEMENT_SET_NO":999,"REV_AT_EPOCH":18787,"BSTAR":6.0328e-5,"MEAN_MOTION_DOT":3.8e-7,"MEAN_MOTION_DDOT":0}]
